BEIJING 1               
1 28890U 05043A   26073.59515531  .00000490  00000+0  10404-3 0  9995
2 28890  98.2732 206.3661 0013819 213.6602 146.3723 14.63465920 86815
HUANJING 1A (HJ-1A)     
1 33320U 08041A   26073.62574207  .00001062  00000+0  13408-3 0  9992
2 33320  97.6639  63.1651 0020736  88.5073 271.8517 14.83737090944385
HUANJING 1B (HJ-1B)     
1 33321U 08041B   26073.62111663  .00001475  00000+0  18507-3 0  9999
2 33321  97.6487  66.6099 0037483 131.8924 228.5498 14.83118512944395
YAOGAN-4                
1 33446U 08061A   26073.57800584  .00001623  00000+0  20602-3 0  9994
2 33446  97.9249   7.8328 0015007  24.3833 335.8088 14.82995582931647
DEIMOS-1                
1 35681U 09041A   26073.56434634  .00001058  00000+0  16392-3 0  9997
2 35681  97.7265 234.9578 0002472 111.2327 248.9147 14.75125760892935
UK-DMC 2                
1 35683U 09041C   26073.58528333  .00000815  00000+0  12599-3 0  9996
2 35683  97.8656 210.9579 0001186  97.4170 262.7174 14.75863254892615
DMC3-FM1                
1 40715U 15032A   26073.57780414  .00000565  00000+0  71176-4 0  9993
2 40715  97.6609 302.3906 0006008  19.4066 340.7377 14.85620394575863
DMC3-FM2                
1 40716U 15032B   26073.60012351  .00001242  00000+0  14933-3 0  9996
2 40716  97.6664 303.9211 0006725  23.5512 336.6010 14.85627385575864
DMC3-FM3                
1 40717U 15032C   26073.62320256  .00000436  00000+0  56256-4 0  9994
2 40717  97.6719 305.6350 0005964  24.9888 335.1615 14.85624525575873
